COSMOS 2251 DEB         
1 40235U 93036BVQ 17344.22003669  .00000452  00000-0  13797-3 0  9993
2 40235  74.0273 183.4099 0018595 283.0928 195.7507 14.44709177169704
